[
    {
        "Altitude(m)": 716681.529883811,
        "Argument of Periapsis(deg)": 0.010251109067964361,
        "Eccentricity": 0.0,
        "Inclination(deg)": 45.0,
        "Latitude(deg)": -42.25289041713836,
        "Longitude(deg)": 14.67726835027328,
        "Mean Anomaly(deg)": -71.43830501726725,
        "RAAN(deg)": 179.9903232526876,
        "Satellite Name": "Constellation 1 809",
        "Satellite Number": 809,
        "Semi-Major Axis(m)": 7083131.272910544,
        "Time(s)": 171
    },
    {
        "Altitude(m)": 716673.8958257753,
        "Argument of Periapsis(deg)": 0.010311057074209765,
        "Eccentricity": 0.0,
        "Inclination(deg)": 45.0,
        "Latitude(deg)": -42.23447770593591,
        "Longitude(deg)": 14.750914865507756,
        "Mean Anomaly(deg)": -71.37760387701738,
        "RAAN(deg)": 179.99026666352205,
        "Satellite Name": "Constellation 1 809",
        "Satellite Number": 809,
        "Semi-Major Axis(m)": 7083131.272910544,
        "Time(s)": 172
    },
    {
        "Altitude(m)": 716666.239804754,
        "Argument of Periapsis(deg)": 0.010371005080455171,
        "Eccentricity": 0.0,
        "Inclination(deg)": 45.0,
        "Latitude(deg)": -42.21601225767715,
        "Longitude(deg)": 14.824516236793734,
        "Mean Anomaly(deg)": -71.31690273676743,
        "RAAN(deg)": 179.99021007435647,
        "Satellite Name": "Constellation 1 809",
        "Satellite Number": 809,
        "Semi-Major Axis(m)": 7083131.272910544,
        "Time(s)": 173
    },
    {
        "Altitude(m)": 716658.5618488251,
        "Argument of Periapsis(deg)": 0.010430953086700577,
        "Eccentricity": 0.0,
        "Inclination(deg)": 45.0,
        "Latitude(deg)": -42.19749413627254,
        "Longitude(deg)": 14.898072390876228,
        "Mean Anomaly(deg)": -71.25620159651758,
        "RAAN(deg)": 179.99015348519092,
        "Satellite Name": "Constellation 1 809",
        "Satellite Number": 809,
        "Semi-Major Axis(m)": 7083131.272910544,
        "Time(s)": 174
    },
    {
        "Altitude(m)": 716650.8619861461,
        "Argument of Periapsis(deg)": 0.010490901092945983,
        "Eccentricity": 0.0,
        "Inclination(deg)": 45.0,
        "Latitude(deg)": -42.17892340571854,
        "Longitude(deg)": 14.971583255049945,
        "Mean Anomaly(deg)": -71.19550045626771,
        "RAAN(deg)": 179.99009689602534,
        "Satellite Name": "Constellation 1 809",
        "Satellite Number": 809,
        "Semi-Major Axis(m)": 7083131.272910544,
        "Time(s)": 175
    },
    {
        "Altitude(m)": 716643.1402449525,
        "Argument of Periapsis(deg)": 0.010550849099191389,
        "Eccentricity": 0.0,
        "Inclination(deg)": 45.0,
        "Latitude(deg)": -42.160300130096765,
        "Longitude(deg)": 15.045048757158206,
        "Mean Anomaly(deg)": -71.13479931601776,
        "RAAN(deg)": 179.99004030685975,
        "Satellite Name": "Constellation 1 809",
        "Satellite Number": 809,
        "Semi-Major Axis(m)": 7083131.272910544,
        "Time(s)": 176
    },
    {
        "Altitude(m)": 716635.3966535585,
        "Argument of Periapsis(deg)": 0.010610797105436795,
        "Eccentricity": 0.0,
        "Inclination(deg)": 45.0,
        "Latitude(deg)": -42.14162437357327,
        "Longitude(deg)": 15.118468825592235,
        "Mean Anomaly(deg)": -71.0740981757678,
        "RAAN(deg)": 179.9899837176942,
        "Satellite Name": "Constellation 1 809",
        "Satellite Number": 809,
        "Semi-Major Axis(m)": 7083131.272910544,
        "Time(s)": 177
    },
    {
        "Altitude(m)": 716627.6312403665,
        "Argument of Periapsis(deg)": 0.0106707451116822,
        "Eccentricity": 0.0,
        "Inclination(deg)": 45.0,
        "Latitude(deg)": -42.12289620039792,
        "Longitude(deg)": 15.191843221194036,
        "Mean Anomaly(deg)": -71.01339703551793,
        "RAAN(deg)": 179.98992712852862,
        "Satellite Name": "Constellation 1 809",
        "Satellite Number": 809,
        "Semi-Major Axis(m)": 7083131.272910544,
        "Time(s)": 178
    },
    {
        "Altitude(m)": 716619.8440338449,
        "Argument of Periapsis(deg)": 0.010730693117927606,
        "Eccentricity": 0.0,
        "Inclination(deg)": 45.0,
        "Latitude(deg)": -42.10411567490226,
        "Longitude(deg)": 15.265172209643872,
        "Mean Anomaly(deg)": -70.95269589526808,
        "RAAN(deg)": 179.98987053936307,
        "Satellite Name": "Constellation 1 809",
        "Satellite Number": 809,
        "Semi-Major Axis(m)": 7083131.272910544,
        "Time(s)": 179
    },
    {
        "Altitude(m)": 716612.035062548,
        "Argument of Periapsis(deg)": 0.01079064112417301,
        "Eccentricity": 0.0,
        "Inclination(deg)": 45.0,
        "Latitude(deg)": -42.0852828615005,
        "Longitude(deg)": 15.338455552877852,
        "Mean Anomaly(deg)": -70.8919947550181,
        "RAAN(deg)": 179.98981395019746,
        "Satellite Name": "Constellation 1 809",
        "Satellite Number": 809,
        "Semi-Major Axis(m)": 7083131.272910544,
        "Time(s)": 180
    },
    {
        "Altitude(m)": 716604.2043551079,
        "Argument of Periapsis(deg)": 0.010850589130418416,
        "Eccentricity": 0.0,
        "Inclination(deg)": 45.0,
        "Latitude(deg)": -42.066397824687705,
        "Longitude(deg)": 15.411693181474611,
        "Mean Anomaly(deg)": -70.83129361476824,
        "RAAN(deg)": 179.9897573610319,
        "Satellite Name": "Constellation 1 809",
        "Satellite Number": 809,
        "Semi-Major Axis(m)": 7083131.272910544,
        "Time(s)": 181
    },
    {
        "Altitude(m)": 716596.3519402342,
        "Argument of Periapsis(deg)": 0.01091053713666382,
        "Eccentricity": 0.0,
        "Inclination(deg)": 45.0,
        "Latitude(deg)": -42.04746062903884,
        "Longitude(deg)": 15.484885026558791,
        "Mean Anomaly(deg)": -70.77059247451841,
        "RAAN(deg)": 179.98970077186635,
        "Satellite Name": "Constellation 1 809",
        "Satellite Number": 809,
        "Semi-Major Axis(m)": 7083131.272910544,
        "Time(s)": 182
    },
    {
        "Altitude(m)": 716588.477846709,
        "Argument of Periapsis(deg)": 0.010970485142909228,
        "Eccentricity": 0.0,
        "Inclination(deg)": 45.0,
        "Latitude(deg)": -42.028471339208245,
        "Longitude(deg)": 15.558031019799957,
        "Mean Anomaly(deg)": -70.70989133426853,
        "RAAN(deg)": 179.98964418270077,
        "Satellite Name": "Constellation 1 809",
        "Satellite Number": 809,
        "Semi-Major Axis(m)": 7083131.272910544,
        "Time(s)": 183
    },
    {
        "Altitude(m)": 716580.5821034061,
        "Argument of Periapsis(deg)": 0.011030433149154634,
        "Eccentricity": 0.0,
        "Inclination(deg)": 45.0,
        "Latitude(deg)": -42.00943001992867,
        "Longitude(deg)": 15.631131093411962,
        "Mean Anomaly(deg)": -70.64919019401859,
        "RAAN(deg)": 179.98958759353522,
        "Satellite Name": "Constellation 1 809",
        "Satellite Number": 809,
        "Semi-Major Axis(m)": 7083131.272910544,
        "Time(s)": 184
    },
    {
        "Altitude(m)": 716572.664739268,
        "Argument of Periapsis(deg)": 0.01109038115540004,
        "Eccentricity": 0.0,
        "Inclination(deg)": 45.0,
        "Latitude(deg)": -41.990336736010725,
        "Longitude(deg)": 15.704185012055461,
        "Mean Anomaly(deg)": -70.58848905376863,
        "RAAN(deg)": 179.98953100436967,
        "Satellite Name": "Constellation 1 809",
        "Satellite Number": 809,
        "Semi-Major Axis(m)": 7083131.272910544,
        "Time(s)": 185
    },
    {
        "Altitude(m)": 716564.7257833146,
        "Argument of Periapsis(deg)": 0.011150329161645444,
        "Eccentricity": 0.0,
        "Inclination(deg)": 45.0,
        "Latitude(deg)": -41.971191552341,
        "Longitude(deg)": 15.777193045225154,
        "Mean Anomaly(deg)": -70.52778791351875,
        "RAAN(deg)": 179.98947441520406,
        "Satellite Name": "Constellation 1 809",
        "Satellite Number": 809,
        "Semi-Major Axis(m)": 7083131.272910544,
        "Time(s)": 186
    },
    {
        "Altitude(m)": 716556.765264647,
        "Argument of Periapsis(deg)": 0.01121027716789085,
        "Eccentricity": 0.0,
        "Inclination(deg)": 45.0,
        "Latitude(deg)": -41.95199453388275,
        "Longitude(deg)": 15.850154958667689,
        "Mean Anomaly(deg)": -70.46708677326889,
        "RAAN(deg)": 179.9894178260385,
        "Satellite Name": "Constellation 1 809",
        "Satellite Number": 809,
        "Semi-Major Axis(m)": 7083131.272910544,
        "Time(s)": 187
    },
    {
        "Altitude(m)": 716548.7832124433,
        "Argument of Periapsis(deg)": 0.011270225174136258,
        "Eccentricity": 0.0,
        "Inclination(deg)": 45.0,
        "Latitude(deg)": -41.93274574567403,
        "Longitude(deg)": 15.923070686768595,
        "Mean Anomaly(deg)": -70.40638563301903,
        "RAAN(deg)": 179.98936123687292,
        "Satellite Name": "Constellation 1 809",
        "Satellite Number": 809,
        "Semi-Major Axis(m)": 7083131.272910544,
        "Time(s)": 188
    },
    {
        "Altitude(m)": 716540.7796559556,
        "Argument of Periapsis(deg)": 0.011330173180381662,
        "Eccentricity": 0.0,
        "Inclination(deg)": 45.0,
        "Latitude(deg)": -41.91344525282722,
        "Longitude(deg)": 15.995940164454678,
        "Mean Anomaly(deg)": -70.34568449276907,
        "RAAN(deg)": 179.98930464770737,
        "Satellite Name": "Constellation 1 809",
        "Satellite Number": 809,
        "Semi-Major Axis(m)": 7083131.272910544,
        "Time(s)": 189
    }
]